STARLINK-1502           
1 45764U 20038AL  26068.68657557  .00093492  00000+0  18008-2 0  9995
2 45764  53.0523 206.0601 0002729  10.3487 349.7575 15.47123466316632
GLOBAL-14               
1 49469U 21106A   26068.28888988  .00027701  00000+0  56243-3 0  9992
2 49469  42.0038 162.6346 0012410  44.7843 315.3999 15.45685996242642
